ONEWEB-0449             
1 51642U 22012W   22100.25002315 -.01176151  00000-0 -41934+0 0  9992
2 51642  87.5102 342.4605 0016815  42.2435 232.0376 14.37517597 10023
ONEWEB-0451             
1 51643U 22012X   22100.25002315 -.00045233  00000-0 -43217-2 0  9997
2 51643  87.1882 340.9303 0002504  98.4744 272.3391 14.93624568 10123
ONEWEB-0452             
1 51644U 22012Y   22100.25002315 -.00045341  00000-0 -43328-2 0  9991
2 51644  87.1875 340.9339 0001326 105.8769 224.7286 14.93620654 10133
ONEWEB-0455             
1 51645U 22012Z   22100.25002315 -.01138320  00000-0 -41779+0 0  9998
2 51645  87.5016 342.4688 0018915  56.1273 323.8509 14.35929554 10001
ONEWEB-0456             
1 51646U 22012AA  22100.25002315 -.01181596  00000-0 -39153+0 0  9995
2 51646  87.5326 342.4526 0018626  50.8084 144.1213 14.41170350 10046
ONEWEB-0457             
1 51647U 22012AB  22100.25002315 -.01186852  00000-0 -41129+0 0  9992
2 51647  87.5218 342.4495 0017728  50.0914 197.6251 14.38963845 10037
ONEWEB-0458             
1 51648U 22012AC  22100.25002315 -.01110234  00000-0 -39225+0 0  9998
2 51648  87.5101 342.4549 0016584  37.2653 339.6345 14.37791348 10022
ONEWEB-0461             
1 51649U 22012AD  22100.25002315 -.00052839  00000-0 -50572-2 0  9995
2 51649  87.2489 341.2446 0003409 109.3819  14.6987 14.93593193 10100
ONEWEB-0463             
1 51650U 22012AE  22100.25002315 -.00046885  00000-0 -44815-2 0  9994
2 51650  87.1888 340.9336 0000898  54.8753 349.4295 14.93618828 10124
ONEWEB-0464             
1 51651U 22012AF  22100.25002315 -.01179338  00000-0 -40667+0 0  9994
2 51651  87.5122 342.4448 0016108  43.5933 208.7324 14.39205823 10034
ONEWEB-0468             
1 51652U 22012AG  22100.25002315 -.01169249  00000-0 -42190+0 0  9998
2 51652  87.5054 342.4294 0017854  47.0737  82.6747 14.36885704 10013
ONEWEB-0473             
1 51653U 22012AH  22100.25002315 -.01183410  00000-0 -41635+0 0  9998
2 51653  87.5112 342.4530 0017198  40.9818  57.9003 14.38202103 10024
ONEWEB-0474             
1 51654U 22012AJ  22100.25002315 -.01183154  00000-0 -42869+0 0  9994
2 51654  87.4983 342.4702 0018180  57.8360  61.4636 14.36712866 10013
ONEWEB-0475             
1 51655U 22012AK  22099.91667824 -.00009462  00000-0 -90261-3 0  9998
2 51655  87.1940 341.0872 0001493  77.8848 227.0176 14.93581082  3578
